{
  "type": "FeatureCollection",
  "features": [
    {
      "type": "Feature",
      "properties": {
        "norad_id": 36744,
        "name": "COMS 1",
        "group": "weather",
        "lat": 3.552659520254855,
        "lon": -156.49694577338977,
        "alt_km": 35786.04239431247,
        "timestamp": "2025-12-25T22:42:16.639376+00:00",
        "meta_object_name": "COMS 1",
        "meta_object_id": "2010-032A",
        "meta_epoch": "2025-12-25T12:42:15.782112",
        "meta_mean_motion": 1.00270082,
        "meta_eccentricity": 8.88e-05,
        "meta_inclination": 4.3689,
        "meta_ra_of_asc_node": 77.8525,
        "meta_arg_of_pericenter": 213.8569,
        "meta_mean_anomaly": 121.3153,
        "meta_ephemeris_type": 0,
        "meta_classification_type": "U",
        "meta_norad_cat_id": 36744,
        "meta_element_set_no": 999,
        "meta_rev_at_epoch": 4934,
        "meta_bstar": 0,
        "meta_mean_motion_dot": -3.24e-06,
        "meta_mean_motion_ddot": 0,
        "tle_line1": "1 36744U 10032A   25359.52934933 -.00000324  00000+0  00000+0 0  9990",
        "tle_line2": "2 36744   4.3689  77.8525 0000888 213.8569 121.3153  1.00270082 49344"
      },
      "geometry": {
        "type": "Point",
        "coordinates": [
          -156.49694577338977,
          3.552659520254855
        ]
      }
    },
    {
      "type": "Feature",
      "properties": {
        "norad_id": 37214,
        "name": "FENGYUN 3B",
        "group": "weather",
        "lat": -58.662439299149035,
        "lon": 55.08071242340034,
        "alt_km": 835.4410606178271,
        "timestamp": "2025-12-25T22:42:16.639388+00:00",
        "meta_object_name": "FENGYUN 3B",
        "meta_object_id": "2010-059A",
        "meta_epoch": "2025-12-25T18:25:14.222208",
        "meta_mean_motion": 14.1479425,
        "meta_eccentricity": 0.0021505,
        "meta_inclination": 98.9886,
        "meta_ra_of_asc_node": 39.8344,
        "meta_arg_of_pericenter": 320.2666,
        "meta_mean_anomaly": 151.3833,
        "meta_ephemeris_type": 0,
        "meta_classification_type": "U",
        "meta_norad_cat_id": 37214,
        "meta_element_set_no": 999,
        "meta_rev_at_epoch": 78290,
        "meta_bstar": 0.0002216,
        "meta_mean_motion_dot": 3.83e-06,
        "meta_mean_motion_ddot": 0,
        "tle_line1": "1 37214U 10059A   25359.76752572  .00000383  00000+0  22160-3 0  9994",
        "tle_line2": "2 37214  98.9886  39.8344 0021505 320.2666 151.3833 14.14794250782903"
      },
      "geometry": {
        "type": "Point",
        "coordinates": [
          55.08071242340034,
          -58.662439299149035
        ]
      }
    },
    {
      "type": "Feature",
      "properties": {
        "norad_id": 37849,
        "name": "SUOMI NPP",
        "group": "weather",
        "lat": 4.964119713403713,
        "lon": -63.59988096173171,
        "alt_km": 829.1757310907515,
        "timestamp": "2025-12-25T22:42:16.639399+00:00",
        "meta_object_name": "SUOMI NPP",
        "meta_object_id": "2011-061A",
        "meta_epoch": "2025-12-22T15:10:21.732672",
        "meta_mean_motion": 14.19516903,
        "meta_eccentricity": 0.00024883,
        "meta_inclination": 98.7787,
        "meta_ra_of_asc_node": 293.8852,
        "meta_arg_of_pericenter": 103.0781,
        "meta_mean_anomaly": 257.0673,
        "meta_ephemeris_type": 0,
        "meta_classification_type": "U",
        "meta_norad_cat_id": 37849,
        "meta_element_set_no": 999,
        "meta_rev_at_epoch": 73339,
        "meta_bstar": 6.3406935e-05,
        "meta_mean_motion_dot": 8.9e-07,
        "meta_mean_motion_ddot": 0,
        "tle_line1": "1 37849U 11061A   25356.63219598  .00000089  00000+0  63407-4 0  9994",
        "tle_line2": "2 37849  98.7787 293.8852 0002488 103.0781 257.0673 14.19516903733392"
      },
      "geometry": {
        "type": "Point",
        "coordinates": [
          -63.59988096173171,
          4.964119713403713
        ]
      }
    },
    {
      "type": "Feature",
      "properties": {
        "norad_id": 38552,
        "name": "METEOSAT-10 (MSG-3)",
        "group": "weather",
        "lat": 1.0339751057829283,
        "lon": 75.51218889722298,
        "alt_km": 35789.24594954419,
        "timestamp": "2025-12-25T22:42:16.639411+00:00",
        "meta_object_name": "METEOSAT-10 (MSG-3)",
        "meta_object_id": "2012-035B",
        "meta_epoch": "2025-12-25T04:23:21.555168",
        "meta_mean_motion": 1.00266615,
        "meta_eccentricity": 0.0001469,
        "meta_inclination": 4.256,
        "meta_ra_of_asc_node": 61.6882,
        "meta_arg_of_pericenter": 266.4043,
        "meta_mean_anomaly": 191.9794,
        "meta_ephemeris_type": 0,
        "meta_classification_type": "U",
        "meta_norad_cat_id": 38552,
        "meta_element_set_no": 999,
        "meta_rev_at_epoch": 4911,
        "meta_bstar": 0,
        "meta_mean_motion_dot": 1.4e-07,
        "meta_mean_motion_ddot": 0,
        "tle_line1": "1 38552U 12035B   25359.18288837  .00000014  00000+0  00000+0 0  9996",
        "tle_line2": "2 38552   4.2560  61.6882 0001469 266.4043 191.9794  1.00266615 49110"
      },
      "geometry": {
        "type": "Point",
        "coordinates": [
          75.51218889722298,
          1.0339751057829283
        ]
      }
    },
    {
      "type": "Feature",
      "properties": {
        "norad_id": 38771,
        "name": "METOP-B",
        "group": "weather",
        "lat": -51.97270900312252,
        "lon": 60.94148026170927,
        "alt_km": 829.8135767613221,
        "timestamp": "2025-12-25T22:42:16.639422+00:00",
        "meta_object_name": "METOP-B",
        "meta_object_id": "2012-049A",
        "meta_epoch": "2025-12-25T17:53:04.625088",
        "meta_mean_motion": 14.21413188,
        "meta_eccentricity": 0.0003278,
        "meta_inclination": 98.6781,
        "meta_ra_of_asc_node": 49.4824,
        "meta_arg_of_pericenter": 117.0556,
        "meta_mean_anomaly": 243.0956,
        "meta_ephemeris_type": 0,
        "meta_classification_type": "U",
        "meta_norad_cat_id": 38771,
        "meta_element_set_no": 999,
        "meta_rev_at_epoch": 68862,
        "meta_bstar": 8.098e-05,
        "meta_mean_motion_dot": 1.33e-06,
        "meta_mean_motion_ddot": 0,
        "tle_line1": "1 38771U 12049A   25359.74519242  .00000133  00000+0  80980-4 0  9995",
        "tle_line2": "2 38771  98.6781  49.4824 0003278 117.0556 243.0956 14.21413188688625"
      },
      "geometry": {
        "type": "Point",
        "coordinates": [
          60.94148026170927,
          -51.97270900312252
        ]
      }
    },
    {
      "type": "Feature",
      "properties": {
        "norad_id": 39216,
        "name": "INSAT-3D",
        "group": "weather",
        "lat": 1.2762386643014878,
        "lon": -155.19406008842606,
        "alt_km": 35778.89368579713,
        "timestamp": "2025-12-25T22:42:16.639435+00:00",
        "meta_object_name": "INSAT-3D",
        "meta_object_id": "2013-038B",
        "meta_epoch": "2025-12-25T12:13:38.614080",
        "meta_mean_motion": 1.00274026,
        "meta_eccentricity": 0.0001916,
        "meta_inclination": 1.4759,
        "meta_ra_of_asc_node": 84.8528,
        "meta_arg_of_pericenter": 156.7609,
        "meta_mean_anomaly": 165.6101,
        "meta_ephemeris_type": 0,
        "meta_classification_type": "U",
        "meta_norad_cat_id": 39216,
        "meta_element_set_no": 999,
        "meta_rev_at_epoch": 4533,
        "meta_bstar": 0,
        "meta_mean_motion_dot": -3.18e-06,
        "meta_mean_motion_ddot": 0,
        "tle_line1": "1 39216U 13038B   25359.50947470 -.00000318  00000+0  00000+0 0  9997",
        "tle_line2": "2 39216   1.4759  84.8528 0001916 156.7609 165.6101  1.00274026 45332"
      },
      "geometry": {
        "type": "Point",
        "coordinates": [
          -155.19406008842606,
          1.2762386643014878
        ]
      }
    },
    {
      "type": "Feature",
      "properties": {
        "norad_id": 39260,
        "name": "FENGYUN 3C",
        "group": "weather",
        "lat": -74.5849927420418,
        "lon": 9.728884035575657,
        "alt_km": 853.4272649362892,
        "timestamp": "2025-12-25T22:42:16.639446+00:00",
        "meta_object_name": "FENGYUN 3C",
        "meta_object_id": "2013-052A",
        "meta_epoch": "2025-12-25T17:58:49.780992",
        "meta_mean_motion": 14.15700193,
        "meta_eccentricity": 0.0015013,
        "meta_inclination": 98.4779,
        "meta_ra_of_asc_node": 336.7942,
        "meta_arg_of_pericenter": 158.5788,
        "meta_mean_anomaly": 201.6018,
        "meta_ephemeris_type": 0,
        "meta_classification_type": "U",
        "meta_norad_cat_id": 39260,
        "meta_element_set_no": 999,
        "meta_rev_at_epoch": 63402,
        "meta_bstar": 8.1345e-05,
        "meta_mean_motion_dot": 1.19e-06,
        "meta_mean_motion_ddot": 0,
        "tle_line1": "1 39260U 13052A   25359.74918728  .00000119  00000+0  81345-4 0  9996",
        "tle_line2": "2 39260  98.4779 336.7942 0015013 158.5788 201.6018 14.15700193634026"
      },
      "geometry": {
        "type": "Point",
        "coordinates": [
          9.728884035575657,
          -74.5849927420418
        ]
      }
    }
  ]
}